[{"OBJECT_NAME":"STARLINK-32019","OBJECT_ID":"2024-120N","EPOCH":"2025-12-06T20:10:31.461888","MEAN_MOTION":15.30201351,"ECCENTRICITY":0.00017199,"INCLINATION":53.1611,"RA_OF_ASC_NODE":30.9761,"ARG_OF_PERICENTER":139.2195,"MEAN_ANOMALY":220.8935,"EPHEMERIS_TYPE":0,"CLASSIFICATION_TYPE":"U","NORAD_CAT_ID":60147,"ELEMENT_SET_NO":999,"REV_AT_EPOCH":8216,"BSTAR":2.6427856e-5,"MEAN_MOTION_DOT":4.23e-6,"MEAN_MOTION_DDOT":0},{"OBJECT_NAME":"STARLINK-32021","OBJECT_ID":"2024-120P","EPOCH":"2025-12-07T02:35:59.161632","MEAN_MOTION":15.30196371,"ECCENTRICITY":0.00014691,"INCLINATION":53.1619,"RA_OF_ASC_NODE":19.8562,"ARG_OF_PERICENTER":89.4932,"MEAN_ANOMALY":270.6238,"EPHEMERIS_TYPE":0,"CLASSIFICATION_TYPE":"U","NORAD_CAT_ID":60148,"ELEMENT_SET_NO":999,"REV_AT_EPOCH":8242,"BSTAR":3.8223912e-5,"MEAN_MOTION_DOT":7.73e-6,"MEAN_MOTION_DDOT":0},{"OBJECT_NAME":"STARLINK-32022","OBJECT_ID":"2024-120Q","EPOCH":"2025-12-06T20:34:51.047328","MEAN_MOTION":15.30199225,"ECCENTRICITY":0.00011464,"INCLINATION":53.1595,"RA_OF_ASC_NODE":31.0836,"ARG_OF_PERICENTER":95.7352,"MEAN_ANOMALY":264.378,"EPHEMERIS_TYPE":0,"CLASSIFICATION_TYPE":"U","NORAD_CAT_ID":60149,"ELEMENT_SET_NO":999,"REV_AT_EPOCH":8224,"BSTAR":9.5782211e-5,"MEAN_MOTION_DOT":2.479e-5,"MEAN_MOTION_DDOT":0},{"OBJECT_NAME":"STARLINK-32014","OBJECT_ID":"2024-120R","EPOCH":"2025-12-06T20:21:09.901728","MEAN_MOTION":15.30194044,"ECCENTRICITY":0.00011551,"INCLINATION":53.161,"RA_OF_ASC_NODE":31.024,"ARG_OF_PERICENTER":103.1433,"MEAN_ANOMALY":256.9697,"EPHEMERIS_TYPE":0,"CLASSIFICATION_TYPE":"U","NORAD_CAT_ID":60150,"ELEMENT_SET_NO":999,"REV_AT_EPOCH":8216,"BSTAR":6.1368607e-5,"MEAN_MOTION_DOT":1.459e-5,"MEAN_MOTION_DDOT":0},{"OBJECT_NAME":"STARLINK-32004","OBJECT_ID":"2024-120S","EPOCH":"2025-12-07T02:41:56.391936","MEAN_MOTION":15.30184635,"ECCENTRICITY":5.361e-5,"INCLINATION":53.1597,"RA_OF_ASC_NODE":29.8296,"ARG_OF_PERICENTER":81.0485,"MEAN_ANOMALY":279.0576,"EPHEMERIS_TYPE":0,"CLASSIFICATION_TYPE":"U","NORAD_CAT_ID":60151,"ELEMENT_SET_NO":999,"REV_AT_EPOCH":8228,"BSTAR":-2.8940454e-5,"MEAN_MOTION_DOT":-1.215e-5,"MEAN_MOTION_DDOT":0},{"OBJECT_NAME":"STARLINK-32147","OBJECT_ID":"2024-120T","EPOCH":"2025-12-07T03:33:36.354816","MEAN_MOTION":15.30197843,"ECCENTRICITY":0.00013109,"INCLINATION":53.1614,"RA_OF_ASC_NODE":30.0576,"ARG_OF_PERICENTER":89.2316,"MEAN_ANOMALY":270.8835,"EPHEMERIS_TYPE":0,"CLASSIFICATION_TYPE":"U","NORAD_CAT_ID":60152,"ELEMENT_SET_NO":999,"REV_AT_EPOCH":8220,"BSTAR":6.287918e-5,"MEAN_MOTION_DOT":1.503e-5,"MEAN_MOTION_DDOT":0},{"OBJECT_NAME":"STARLINK-32131","OBJECT_ID":"2024-120U","EPOCH":"2025-12-07T03:09:18.163008","MEAN_MOTION":15.30183492,"ECCENTRICITY":0.00013708,"INCLINATION":53.1604,"RA_OF_ASC_NODE":29.9487,"ARG_OF_PERICENTER":109.0053,"MEAN_ANOMALY":251.1097,"EPHEMERIS_TYPE":0,"CLASSIFICATION_TYPE":"U","NORAD_CAT_ID":60153,"ELEMENT_SET_NO":999,"REV_AT_EPOCH":8228,"BSTAR":5.7269836e-5,"MEAN_MOTION_DOT":1.336e-5,"MEAN_MOTION_DDOT":0},{"OBJECT_NAME":"STARLINK-32145","OBJECT_ID":"2024-120V","EPOCH":"2025-12-06T20:15:05.595264","MEAN_MOTION":15.30187917,"ECCENTRICITY":8.746e-5,"INCLINATION":53.161,"RA_OF_ASC_NODE":30.9915,"ARG_OF_PERICENTER":115.9996,"MEAN_ANOMALY":244.1095,"EPHEMERIS_TYPE":0,"CLASSIFICATION_TYPE":"U","NORAD_CAT_ID":60154,"ELEMENT_SET_NO":999,"REV_AT_EPOCH":8216,"BSTAR":2.2746498e-5,"MEAN_MOTION_DOT":3.15e-6,"MEAN_MOTION_DDOT":0},{"OBJECT_NAME":"STARLINK-32137","OBJECT_ID":"2024-120W","EPOCH":"2025-12-06T20:39:27.931680","MEAN_MOTION":15.30044236,"ECCENTRICITY":0.00030159,"INCLINATION":53.1604,"RA_OF_ASC_NODE":31.1026,"ARG_OF_PERICENTER":129.235,"MEAN_ANOMALY":230.8918,"EPHEMERIS_TYPE":0,"CLASSIFICATION_TYPE":"U","NORAD_CAT_ID":60155,"ELEMENT_SET_NO":999,"REV_AT_EPOCH":8216,"BSTAR":0.0012629696,"MEAN_MOTION_DOT":0.00037056,"MEAN_MOTION_DDOT":0},{"OBJECT_NAME":"STARLINK-32048","OBJECT_ID":"2024-120X","EPOCH":"2025-12-06T20:43:58.257408","MEAN_MOTION":15.30194872,"ECCENTRICITY":0.00015164,"INCLINATION":53.1619,"RA_OF_ASC_NODE":31.123,"ARG_OF_PERICENTER":109.4297,"MEAN_ANOMALY":250.6868,"EPHEMERIS_TYPE":0,"CLASSIFICATION_TYPE":"U","NORAD_CAT_ID":60156,"ELEMENT_SET_NO":999,"REV_AT_EPOCH":8216,"BSTAR":-6.8115621e-5,"MEAN_MOTION_DOT":-2.376e-5,"MEAN_MOTION_DDOT":0},{"OBJECT_NAME":"STARLINK-32129","OBJECT_ID":"2024-120Y","EPOCH":"2025-12-07T03:42:43.427520","MEAN_MOTION":15.30198181,"ECCENTRICITY":0.00012174,"INCLINATION":53.1607,"RA_OF_ASC_NODE":30.0908,"ARG_OF_PERICENTER":84.9072,"MEAN_ANOMALY":275.2067,"EPHEMERIS_TYPE":0,"CLASSIFICATION_TYPE":"U","NORAD_CAT_ID":60157,"ELEMENT_SET_NO":999,"REV_AT_EPOCH":8228,"BSTAR":3.7655745e-5,"MEAN_MOTION_DOT":7.56e-6,"MEAN_MOTION_DDOT":0},{"OBJECT_NAME":"STARLINK-11168 [DTC]","OBJECT_ID":"2024-124A","EPOCH":"2025-12-07T04:02:19.492224","MEAN_MOTION":15.69714309,"ECCENTRICITY":0.00014924,"INCLINATION":53.1575,"RA_OF_ASC_NODE":257.2719,"ARG_OF_PERICENTER":89.8507,"MEAN_ANOMALY":270.2682,"EPHEMERIS_TYPE":0,"CLASSIFICATION_TYPE":"U","NORAD_CAT_ID":60183,"ELEMENT_SET_NO":999,"REV_AT_EPOCH":8319,"BSTAR":-9.516358e-6,"MEAN_MOTION_DOT":-1.742e-5,"MEAN_MOTION_DDOT":0},{"OBJECT_NAME":"STARLINK-11187 [DTC]","OBJECT_ID":"2024-124B","EPOCH":"2025-12-07T00:51:53.645184","MEAN_MOTION":15.69722039,"ECCENTRICITY":0.00015147,"INCLINATION":53.1573,"RA_OF_ASC_NODE":257.8688,"ARG_OF_PERICENTER":94.8738,"MEAN_ANOMALY":265.2453,"EPHEMERIS_TYPE":0,"CLASSIFICATION_TYPE":"U","NORAD_CAT_ID":60184,"ELEMENT_SET_NO":999,"REV_AT_EPOCH":8198,"BSTAR":5.4535449e-5,"MEAN_MOTION_DOT":6.026e-5,"MEAN_MOTION_DDOT":0},{"OBJECT_NAME":"STARLINK-11180 [DTC]","OBJECT_ID":"2024-124C","EPOCH":"2025-12-07T03:48:11.909952","MEAN_MOTION":15.69702587,"ECCENTRICITY":0.00012982,"INCLINATION":53.1573,"RA_OF_ASC_NODE":257.2081,"ARG_OF_PERICENTER":98.921,"MEAN_ANOMALY":261.1955,"EPHEMERIS_TYPE":0,"CLASSIFICATION_TYPE":"U","NORAD_CAT_ID":60185,"ELEMENT_SET_NO":999,"REV_AT_EPOCH":8200,"BSTAR":-2.0864081e-5,"MEAN_MOTION_DOT":-3.115e-5,"MEAN_MOTION_DDOT":0},{"OBJECT_NAME":"STARLINK-11197 [DTC]","OBJECT_ID":"2024-124D","EPOCH":"2025-12-07T00:37:46.567488","MEAN_MOTION":15.69683637,"ECCENTRICITY":7.859e-5,"INCLINATION":53.159,"RA_OF_ASC_NODE":257.8026,"ARG_OF_PERICENTER":92.4547,"MEAN_ANOMALY":267.6561,"EPHEMERIS_TYPE":0,"CLASSIFICATION_TYPE":"U","NORAD_CAT_ID":60186,"ELEMENT_SET_NO":999,"REV_AT_EPOCH":8198,"BSTAR":4.3668385e-5,"MEAN_MOTION_DOT":4.7e-5,"MEAN_MOTION_DDOT":0},{"OBJECT_NAME":"STARLINK-11194 [DTC]","OBJECT_ID":"2024-124E","EPOCH":"2025-12-07T00:30:42.513696","MEAN_MOTION":15.69713076,"ECCENTRICITY":0.00014863,"INCLINATION":53.159,"RA_OF_ASC_NODE":257.7706,"ARG_OF_PERICENTER":15.7899,"MEAN_ANOMALY":344.3165,"EPHEMERIS_TYPE":0,"CLASSIFICATION_TYPE":"U","NORAD_CAT_ID":60187,"ELEMENT_SET_NO":999,"REV_AT_EPOCH":8198,"BSTAR":2.0066181e-5,"MEAN_MOTION_DOT":1.843e-5,"MEAN_MOTION_DDOT":0}]
