STARLINK-32019          
1 60147U 24120N   25340.84064192  .00000423  00000+0  26428-4 0  9999
2 60147  53.1611  30.9761 0001719 139.2195 220.8935 15.30201351 82168
STARLINK-32021          
1 60148U 24120P   25341.10832363  .00000773  00000+0  38224-4 0  9998
2 60148  53.1619  19.8562 0001469  89.4932 270.6238 15.30196371 82422
STARLINK-32022          
1 60149U 24120Q   25340.85753527  .00002479  00000+0  95782-4 0  9991
2 60149  53.1595  31.0836 0001146  95.7352 264.3780 15.30199225 82247
STARLINK-32014          
1 60150U 24120R   25340.84803127  .00001459  00000+0  61369-4 0  9995
2 60150  53.1610  31.0240 0001155 103.1433 256.9697 15.30194044 82169
STARLINK-32004          
1 60151U 24120S   25341.11245824 -.00001215  00000+0 -28940-4 0  9991
2 60151  53.1597  29.8296 0000536  81.0485 279.0576 15.30184635 82283
STARLINK-32147          
1 60152U 24120T   25341.14833744  .00001503  00000+0  62879-4 0  9996
2 60152  53.1614  30.0576 0001310  89.2316 270.8835 15.30197843 82207
STARLINK-32131          
1 60153U 24120U   25341.13146022  .00001336  00000+0  57270-4 0  9995
2 60153  53.1604  29.9487 0001370 109.0053 251.1097 15.30183492 82285
STARLINK-32145          
1 60154U 24120V   25340.84381476  .00000315  00000+0  22746-4 0  9993
2 60154  53.1610  30.9915 0000874 115.9996 244.1095 15.30187917 82164
STARLINK-32137          
1 60155U 24120W   25340.86073995  .00037056  00000+0  12630-2 0  9991
2 60155  53.1604  31.1026 0003015 129.2350 230.8918 15.30044236 82168
STARLINK-32048          
1 60156U 24120X   25340.86386872 -.00002376  00000+0 -68116-4 0  9994
2 60156  53.1619  31.1230 0001516 109.4297 250.6868 15.30194872 82162
STARLINK-32129          
1 60157U 24120Y   25341.15466930  .00000756  00000+0  37656-4 0  9995
2 60157  53.1607  30.0908 0001217  84.9072 275.2067 15.30198181 82280
STARLINK-11168 [DTC]    
1 60183U 24124A   25341.16828116 -.00001742  00000+0 -95164-5 0  9994
2 60183  53.1575 257.2719 0001492  89.8507 270.2682 15.69714309 83195
STARLINK-11187 [DTC]    
1 60184U 24124B   25341.03603756  .00006026  00000+0  54535-4 0  9996
2 60184  53.1573 257.8688 0001514  94.8738 265.2453 15.69722039 81986
STARLINK-11180 [DTC]    
1 60185U 24124C   25341.15847118 -.00003115  00000+0 -20864-4 0  9998
2 60185  53.1573 257.2081 0001298  98.9210 261.1955 15.69702587 82009
STARLINK-11197 [DTC]    
1 60186U 24124D   25341.02623342  .00004700  00000+0  43668-4 0  9992
2 60186  53.1590 257.8026 0000785  92.4547 267.6561 15.69683637 81980
STARLINK-11194 [DTC]    
1 60187U 24124E   25341.02132539  .00001843  00000+0  20066-4 0  9998
2 60187  53.1590 257.7706 0001486  15.7899 344.3165 15.69713076 81986
